{
  "type": "FeatureCollection",
  "features": [
    {
      "type": "Feature",
      "properties": {
        "norad_id": 66909,
        "name": "SILVERSAT",
        "group": "stations",
        "lat": 40.67688160386298,
        "lon": -165.41070862129914,
        "alt_km": 410.5537301682016,
        "timestamp": "2025-12-10T20:49:51.360841+00:00",
        "meta_object_name": "SILVERSAT",
        "meta_object_id": "1998-067XV",
        "meta_epoch": "2025-12-10T14:24:17.076960",
        "meta_mean_motion": 15.51201749,
        "meta_eccentricity": 0.00046642,
        "meta_inclination": 51.6305,
        "meta_ra_of_asc_node": 153.0034,
        "meta_arg_of_pericenter": 216.0058,
        "meta_mean_anomaly": 144.0618,
        "meta_ephemeris_type": 0,
        "meta_classification_type": "U",
        "meta_norad_cat_id": 66909,
        "meta_element_set_no": 999,
        "meta_rev_at_epoch": 128,
        "meta_bstar": 0.0015461783,
        "meta_mean_motion_dot": 0.00092744,
        "meta_mean_motion_ddot": 0,
        "tle_line1": "1 66909U 98067XV  25344.60019765  .00092744  00000+0  15462-2 0  9997",
        "tle_line2": "2 66909  51.6305 153.0034 0004664 216.0058 144.0618 15.51201749  1280"
      },
      "geometry": {
        "type": "Point",
        "coordinates": [
          -165.41070862129914,
          40.67688160386298
        ]
      }
    },
    {
      "type": "Feature",
      "properties": {
        "norad_id": 66910,
        "name": "1998-067XW",
        "group": "stations",
        "lat": 44.60051539633639,
        "lon": -156.95840613454402,
        "alt_km": 409.14742361336175,
        "timestamp": "2025-12-10T20:49:51.360854+00:00",
        "meta_object_name": "1998-067XW",
        "meta_object_id": "1998-067XW",
        "meta_epoch": "2025-12-10T11:16:54.563808",
        "meta_mean_motion": 15.51350337,
        "meta_eccentricity": 0.00055419,
        "meta_inclination": 51.6299,
        "meta_ra_of_asc_node": 153.6351,
        "meta_arg_of_pericenter": 197.1967,
        "meta_mean_anomaly": 162.8836,
        "meta_ephemeris_type": 0,
        "meta_classification_type": "U",
        "meta_norad_cat_id": 66910,
        "meta_element_set_no": 999,
        "meta_rev_at_epoch": 126,
        "meta_bstar": 0.0013818348,
        "meta_mean_motion_dot": 0.00083191,
        "meta_mean_motion_ddot": 0,
        "tle_line1": "1 66910U 98067XW  25344.47007597  .00083191  00000+0  13818-2 0  9993",
        "tle_line2": "2 66910  51.6299 153.6351 0005541 197.1967 162.8836 15.51350337  1261"
      },
      "geometry": {
        "type": "Point",
        "coordinates": [
          -156.95840613454402,
          44.60051539633639
        ]
      }
    },
    {
      "type": "Feature",
      "properties": {
        "norad_id": 66911,
        "name": "1998-067XX",
        "group": "stations",
        "lat": 45.748125789590375,
        "lon": -153.93182104261342,
        "alt_km": 408.4214743816274,
        "timestamp": "2025-12-10T20:49:51.360864+00:00",
        "meta_object_name": "1998-067XX",
        "meta_object_id": "1998-067XX",
        "meta_epoch": "2025-12-09T02:48:25.040736",
        "meta_mean_motion": 15.51276485,
        "meta_eccentricity": 0.00057034,
        "meta_inclination": 51.6296,
        "meta_ra_of_asc_node": 160.3494,
        "meta_arg_of_pericenter": 191.2268,
        "meta_mean_anomaly": 168.8595,
        "meta_ephemeris_type": 0,
        "meta_classification_type": "U",
        "meta_norad_cat_id": 66911,
        "meta_element_set_no": 999,
        "meta_rev_at_epoch": 104,
        "meta_bstar": 0.0014245982,
        "meta_mean_motion_dot": 0.00085582,
        "meta_mean_motion_ddot": 0,
        "tle_line1": "1 66911U 98067XX  25343.11695649  .00085582  00000+0  14246-2 0  9997",
        "tle_line2": "2 66911  51.6296 160.3494 0005703 191.2268 168.8595 15.51276485  1046"
      },
      "geometry": {
        "type": "Point",
        "coordinates": [
          -153.93182104261342,
          45.748125789590375
        ]
      }
    },
    {
      "type": "Feature",
      "properties": {
        "norad_id": 66912,
        "name": "1998-067XY",
        "group": "stations",
        "lat": 36.911963465326515,
        "lon": -171.7920529731705,
        "alt_km": 412.40113649208615,
        "timestamp": "2025-12-10T20:49:51.360874+00:00",
        "meta_object_name": "1998-067XY",
        "meta_object_id": "1998-067XY",
        "meta_epoch": "2025-12-10T12:53:00.237984",
        "meta_mean_motion": 15.50813363,
        "meta_eccentricity": 0.00047702,
        "meta_inclination": 51.6309,
        "meta_ra_of_asc_node": 153.3305,
        "meta_arg_of_pericenter": 212.0937,
        "meta_mean_anomaly": 147.9763,
        "meta_ephemeris_type": 0,
        "meta_classification_type": "U",
        "meta_norad_cat_id": 66912,
        "meta_element_set_no": 999,
        "meta_rev_at_epoch": 126,
        "meta_bstar": 0.0011701261,
        "meta_mean_motion_dot": 0.00068898,
        "meta_mean_motion_ddot": 0,
        "tle_line1": "1 66912U 98067XY  25344.53680831  .00068898  00000+0  11701-2 0  9996",
        "tle_line2": "2 66912  51.6309 153.3305 0004770 212.0937 147.9763 15.50813363  1263"
      },
      "geometry": {
        "type": "Point",
        "coordinates": [
          -171.7920529731705,
          36.911963465326515
        ]
      }
    }
  ]
}